[{"OBJECT_NAME":"STARLINK-30159","OBJECT_ID":"2023-105L","EPOCH":"2025-08-15T12:08:18.794112","MEAN_MOTION":15.02512188,"ECCENTRICITY":0.0001136,"INCLINATION":43.0032,"RA_OF_ASC_NODE":302.127,"ARG_OF_PERICENTER":262.0397,"MEAN_ANOMALY":98.0317,"EPHEMERIS_TYPE":0,"CLASSIFICATION_TYPE":"U","NORAD_CAT_ID":57440,"ELEMENT_SET_NO":999,"REV_AT_EPOCH":11438,"BSTAR":0.00043079,"MEAN_MOTION_DOT":5.617e-5,"MEAN_MOTION_DDOT":0},{"OBJECT_NAME":"STARLINK-30160","OBJECT_ID":"2023-105M","EPOCH":"2025-08-15T12:03:30.765024","MEAN_MOTION":15.02532887,"ECCENTRICITY":0.0001657,"INCLINATION":43.0043,"RA_OF_ASC_NODE":302.1055,"ARG_OF_PERICENTER":276.3408,"MEAN_ANOMALY":83.7246,"EPHEMERIS_TYPE":0,"CLASSIFICATION_TYPE":"U","NORAD_CAT_ID":57441,"ELEMENT_SET_NO":999,"REV_AT_EPOCH":11438,"BSTAR":-5.3802e-5,"MEAN_MOTION_DOT":-9.3e-6,"MEAN_MOTION_DDOT":0},{"OBJECT_NAME":"STARLINK-30146","OBJECT_ID":"2023-105N","EPOCH":"2025-08-15T05:35:47.888160","MEAN_MOTION":15.02535132,"ECCENTRICITY":0.0001478,"INCLINATION":43.0033,"RA_OF_ASC_NODE":303.5227,"ARG_OF_PERICENTER":264.9911,"MEAN_ANOMALY":95.0762,"EPHEMERIS_TYPE":0,"CLASSIFICATION_TYPE":"U","NORAD_CAT_ID":57442,"ELEMENT_SET_NO":999,"REV_AT_EPOCH":11456,"BSTAR":6.8677e-5,"MEAN_MOTION_DOT":7.24e-6,"MEAN_MOTION_DDOT":0},{"OBJECT_NAME":"STARLINK-30197","OBJECT_ID":"2023-105P","EPOCH":"2025-08-15T11:53:54.729312","MEAN_MOTION":15.02537627,"ECCENTRICITY":0.0001348,"INCLINATION":43.0031,"RA_OF_ASC_NODE":302.0532,"ARG_OF_PERICENTER":272.4464,"MEAN_ANOMALY":87.6224,"EPHEMERIS_TYPE":0,"CLASSIFICATION_TYPE":"U","NORAD_CAT_ID":57443,"ELEMENT_SET_NO":999,"REV_AT_EPOCH":11454,"BSTAR":6.8436e-5,"MEAN_MOTION_DOT":7.21e-6,"MEAN_MOTION_DDOT":0},{"OBJECT_NAME":"STARLINK-30181","OBJECT_ID":"2023-105Q","EPOCH":"2025-08-15T11:34:43.935744","MEAN_MOTION":15.02562384,"ECCENTRICITY":0.0001495,"INCLINATION":43.0046,"RA_OF_ASC_NODE":301.9541,"ARG_OF_PERICENTER":264.9084,"MEAN_ANOMALY":95.1587,"EPHEMERIS_TYPE":0,"CLASSIFICATION_TYPE":"U","NORAD_CAT_ID":57444,"ELEMENT_SET_NO":999,"REV_AT_EPOCH":11460,"BSTAR":-0.0004325,"MEAN_MOTION_DOT":-6.045e-5,"MEAN_MOTION_DDOT":0},{"OBJECT_NAME":"STARLINK-30215","OBJECT_ID":"2023-105R","EPOCH":"2025-08-15T11:41:07.825632","MEAN_MOTION":15.02536617,"ECCENTRICITY":7.48e-5,"INCLINATION":43.0038,"RA_OF_ASC_NODE":301.9844,"ARG_OF_PERICENTER":293.8888,"MEAN_ANOMALY":66.1876,"EPHEMERIS_TYPE":0,"CLASSIFICATION_TYPE":"U","NORAD_CAT_ID":57445,"ELEMENT_SET_NO":999,"REV_AT_EPOCH":11438,"BSTAR":1.2785e-5,"MEAN_MOTION_DOT":-3.1e-7,"MEAN_MOTION_DDOT":0},{"OBJECT_NAME":"STARLINK-30162","OBJECT_ID":"2023-105S","EPOCH":"2025-08-15T11:30:25.055424","MEAN_MOTION":15.02508031,"ECCENTRICITY":0.0001808,"INCLINATION":43.0066,"RA_OF_ASC_NODE":289.1996,"ARG_OF_PERICENTER":276.3558,"MEAN_ANOMALY":83.7078,"EPHEMERIS_TYPE":0,"CLASSIFICATION_TYPE":"U","NORAD_CAT_ID":57446,"ELEMENT_SET_NO":999,"REV_AT_EPOCH":11469,"BSTAR":-0.0003108,"MEAN_MOTION_DOT":-4.396e-5,"MEAN_MOTION_DDOT":0},{"OBJECT_NAME":"STARLINK-30178","OBJECT_ID":"2023-105T","EPOCH":"2025-08-15T11:39:32.154048","MEAN_MOTION":15.02535691,"ECCENTRICITY":0.0001237,"INCLINATION":43.0031,"RA_OF_ASC_NODE":301.9788,"ARG_OF_PERICENTER":267.6974,"MEAN_ANOMALY":92.3727,"EPHEMERIS_TYPE":0,"CLASSIFICATION_TYPE":"U","NORAD_CAT_ID":57447,"ELEMENT_SET_NO":999,"REV_AT_EPOCH":11454,"BSTAR":-3.9443e-5,"MEAN_MOTION_DOT":-7.36e-6,"MEAN_MOTION_DDOT":0},{"OBJECT_NAME":"STARLINK-30196","OBJECT_ID":"2023-105U","EPOCH":"2025-08-15T13:00:52.626528","MEAN_MOTION":15.02534969,"ECCENTRICITY":0.0001296,"INCLINATION":43.0024,"RA_OF_ASC_NODE":301.5434,"ARG_OF_PERICENTER":265.1795,"MEAN_ANOMALY":94.8899,"EPHEMERIS_TYPE":0,"CLASSIFICATION_TYPE":"U","NORAD_CAT_ID":57448,"ELEMENT_SET_NO":999,"REV_AT_EPOCH":11439,"BSTAR":7.08e-5,"MEAN_MOTION_DOT":7.53e-6,"MEAN_MOTION_DDOT":0},{"OBJECT_NAME":"STARLINK-30225","OBJECT_ID":"2023-105V","EPOCH":"2025-08-15T14:31:48.724320","MEAN_MOTION":15.02534947,"ECCENTRICITY":0.0001469,"INCLINATION":43.0048,"RA_OF_ASC_NODE":301.1531,"ARG_OF_PERICENTER":267.6416,"MEAN_ANOMALY":92.4258,"EPHEMERIS_TYPE":0,"CLASSIFICATION_TYPE":"U","NORAD_CAT_ID":57449,"ELEMENT_SET_NO":999,"REV_AT_EPOCH":11462,"BSTAR":7.0108e-5,"MEAN_MOTION_DOT":7.43e-6,"MEAN_MOTION_DDOT":0},{"OBJECT_NAME":"STARLINK-30217","OBJECT_ID":"2023-105W","EPOCH":"2025-08-15T14:17:51.539424","MEAN_MOTION":15.025381,"ECCENTRICITY":0.0001386,"INCLINATION":43.0047,"RA_OF_ASC_NODE":288.3997,"ARG_OF_PERICENTER":267.9583,"MEAN_ANOMALY":92.11,"EPHEMERIS_TYPE":0,"CLASSIFICATION_TYPE":"U","NORAD_CAT_ID":57450,"ELEMENT_SET_NO":999,"REV_AT_EPOCH":11471,"BSTAR":-1.4117e-5,"MEAN_MOTION_DOT":-3.94e-6,"MEAN_MOTION_DDOT":0},{"OBJECT_NAME":"STARLINK-30216","OBJECT_ID":"2023-105X","EPOCH":"2025-08-15T12:51:17.155008","MEAN_MOTION":15.02538665,"ECCENTRICITY":0.0001338,"INCLINATION":43.0034,"RA_OF_ASC_NODE":301.5054,"ARG_OF_PERICENTER":274.345,"MEAN_ANOMALY":85.7239,"EPHEMERIS_TYPE":0,"CLASSIFICATION_TYPE":"U","NORAD_CAT_ID":57451,"ELEMENT_SET_NO":999,"REV_AT_EPOCH":11439,"BSTAR":8.1186e-5,"MEAN_MOTION_DOT":8.93e-6,"MEAN_MOTION_DDOT":0},{"OBJECT_NAME":"STARLINK-30165","OBJECT_ID":"2023-107A","EPOCH":"2025-08-15T10:20:39.899040","MEAN_MOTION":15.02536948,"ECCENTRICITY":0.000137,"INCLINATION":43.0049,"RA_OF_ASC_NODE":19.987,"ARG_OF_PERICENTER":262.2094,"MEAN_ANOMALY":97.8592,"EPHEMERIS_TYPE":0,"CLASSIFICATION_TYPE":"U","NORAD_CAT_ID":57457,"ELEMENT_SET_NO":999,"REV_AT_EPOCH":11407,"BSTAR":4.6187e-5,"MEAN_MOTION_DOT":4.2e-6,"MEAN_MOTION_DDOT":0},{"OBJECT_NAME":"STARLINK-30140","OBJECT_ID":"2023-107B","EPOCH":"2025-08-15T11:51:36.044352","MEAN_MOTION":15.02536435,"ECCENTRICITY":0.0001309,"INCLINATION":43.005,"RA_OF_ASC_NODE":19.6007,"ARG_OF_PERICENTER":268.9543,"MEAN_ANOMALY":91.1149,"EPHEMERIS_TYPE":0,"CLASSIFICATION_TYPE":"U","NORAD_CAT_ID":57458,"ELEMENT_SET_NO":999,"REV_AT_EPOCH":11409,"BSTAR":3.2242e-5,"MEAN_MOTION_DOT":2.32e-6,"MEAN_MOTION_DDOT":0},{"OBJECT_NAME":"STARLINK-30185","OBJECT_ID":"2023-107C","EPOCH":"2025-08-15T11:46:47.131392","MEAN_MOTION":15.0253937,"ECCENTRICITY":0.0001434,"INCLINATION":43.0044,"RA_OF_ASC_NODE":19.5745,"ARG_OF_PERICENTER":262.2529,"MEAN_ANOMALY":97.8151,"EPHEMERIS_TYPE":0,"CLASSIFICATION_TYPE":"U","NORAD_CAT_ID":57459,"ELEMENT_SET_NO":999,"REV_AT_EPOCH":11409,"BSTAR":0.00024129,"MEAN_MOTION_DOT":3.057e-5,"MEAN_MOTION_DDOT":0},{"OBJECT_NAME":"STARLINK-30077","OBJECT_ID":"2023-107D","EPOCH":"2025-08-15T11:42:03.094848","MEAN_MOTION":15.02515599,"ECCENTRICITY":0.0001314,"INCLINATION":43.0041,"RA_OF_ASC_NODE":19.5496,"ARG_OF_PERICENTER":271.4801,"MEAN_ANOMALY":88.5891,"EPHEMERIS_TYPE":0,"CLASSIFICATION_TYPE":"U","NORAD_CAT_ID":57460,"ELEMENT_SET_NO":999,"REV_AT_EPOCH":11409,"BSTAR":-0.0002003,"MEAN_MOTION_DOT":-2.907e-5,"MEAN_MOTION_DDOT":0},{"OBJECT_NAME":"STARLINK-30229","OBJECT_ID":"2023-107E","EPOCH":"2025-08-15T12:01:11.752608","MEAN_MOTION":15.02533448,"ECCENTRICITY":0.0001297,"INCLINATION":43.0056,"RA_OF_ASC_NODE":19.6449,"ARG_OF_PERICENTER":264.1038,"MEAN_ANOMALY":95.9656,"EPHEMERIS_TYPE":0,"CLASSIFICATION_TYPE":"U","NORAD_CAT_ID":57461,"ELEMENT_SET_NO":999,"REV_AT_EPOCH":11409,"BSTAR":-4.0711e-5,"MEAN_MOTION_DOT":-7.53e-6,"MEAN_MOTION_DDOT":0}]
