STARLINK-30159          
1 57440U 23105L   25227.50577308  .00005617  00000+0  43079-3 0  9998
2 57440  43.0032 302.1270 0001136 262.0397  98.0317 15.02512188114387
STARLINK-30160          
1 57441U 23105M   25227.50243941 -.00000930  00000+0 -53802-4 0  9993
2 57441  43.0043 302.1055 0001657 276.3408  83.7246 15.02532887114380
STARLINK-30146          
1 57442U 23105N   25227.23319315  .00000724  00000+0  68677-4 0  9998
2 57442  43.0033 303.5227 0001478 264.9911  95.0762 15.02535132114564
STARLINK-30197          
1 57443U 23105P   25227.49577233  .00000721  00000+0  68436-4 0  9992
2 57443  43.0031 302.0532 0001348 272.4464  87.6224 15.02537627114548
STARLINK-30181          
1 57444U 23105Q   25227.48245296 -.00006045  00000+0 -43250-3 0  9996
2 57444  43.0046 301.9541 0001495 264.9084  95.1587 15.02562384114601
STARLINK-30215          
1 57445U 23105R   25227.48689613 -.00000031  00000+0  12785-4 0  9990
2 57445  43.0038 301.9844 0000748 293.8888  66.1876 15.02536617114386
STARLINK-30162          
1 57446U 23105S   25227.47945666 -.00004396  00000+0 -31080-3 0  9990
2 57446  43.0066 289.1996 0001808 276.3558  83.7078 15.02508031114693
STARLINK-30178          
1 57447U 23105T   25227.48578882 -.00000736  00000+0 -39443-4 0  9990
2 57447  43.0031 301.9788 0001237 267.6974  92.3727 15.02535691114542
STARLINK-30196          
1 57448U 23105U   25227.54227577  .00000753  00000+0  70800-4 0  9999
2 57448  43.0024 301.5434 0001296 265.1795  94.8899 15.02534969114395
STARLINK-30225          
1 57449U 23105V   25227.60542505  .00000743  00000+0  70108-4 0  9998
2 57449  43.0048 301.1531 0001469 267.6416  92.4258 15.02534947114620
STARLINK-30217          
1 57450U 23105W   25227.59573541 -.00000394  00000+0 -14117-4 0  9994
2 57450  43.0047 288.3997 0001386 267.9583  92.1100 15.02538100114717
STARLINK-30216          
1 57451U 23105X   25227.53561522  .00000893  00000+0  81186-4 0  9997
2 57451  43.0034 301.5054 0001338 274.3450  85.7239 15.02538665114399
STARLINK-30165          
1 57457U 23107A   25227.43101735  .00000420  00000+0  46187-4 0  9998
2 57457  43.0049  19.9870 0001370 262.2094  97.8592 15.02536948114076
STARLINK-30140          
1 57458U 23107B   25227.49416718  .00000232  00000+0  32242-4 0  9993
2 57458  43.0050  19.6007 0001309 268.9543  91.1149 15.02536435114090
STARLINK-30185          
1 57459U 23107C   25227.49082328  .00003057  00000+0  24129-3 0  9992
2 57459  43.0044  19.5745 0001434 262.2529  97.8151 15.02539370114099
STARLINK-30077          
1 57460U 23107D   25227.48753582 -.00002907  00000+0 -20030-3 0  9992
2 57460  43.0041  19.5496 0001314 271.4801  88.5891 15.02515599114098
STARLINK-30229          
1 57461U 23107E   25227.50083047 -.00000753  00000+0 -40711-4 0  9994
2 57461  43.0056  19.6449 0001297 264.1038  95.9656 15.02533448114099
